{
  "norad_id": 64518,
  "name": "KUIPER-00058",
  "history": [
    {
      "epoch": "2026-03-28T21:13:29.285472",
      "apogee_km": 630.0122702444614,
      "perigee_km": 629.0480152456194,
      "latitude_deg": 19.867131568670988,
      "longitude_deg": -3.3007939199451357,
      "semi_major_axis_km": 7007.66714274504,
      "eccentricity": 6.88e-05,
      "inclination_deg": 51.9002,
      "raan_deg": 140.6565,
      "arg_perigee_deg": 58.8382,
      "mean_anomaly_deg": 301.2648,
      "mean_motion_rev_day": 14.79934738
    }
  ]
}